{
  "type": "FeatureCollection",
  "features": [
    {
      "type": "Feature",
      "properties": {
        "norad_id": 67032,
        "name": "STARLINK-36131",
        "group": "last-30-days",
        "lat": 30.973309252276902,
        "lon": -89.92797681314671,
        "alt_km": 310.44081160713813,
        "timestamp": "2025-12-21T05:44:50.294115+00:00",
        "meta_object_name": "STARLINK-36131",
        "meta_object_id": "2025-294C",
        "meta_epoch": "2025-12-20T22:00:01.999584",
        "meta_mean_motion": 15.86679643,
        "meta_eccentricity": 0.00017333,
        "meta_inclination": 42.9997,
        "meta_ra_of_asc_node": 132.165,
        "meta_arg_of_pericenter": 280.76,
        "meta_mean_anomaly": 164.7143,
        "meta_ephemeris_type": 0,
        "meta_classification_type": "U",
        "meta_norad_cat_id": 67032,
        "meta_element_set_no": 999,
        "meta_rev_at_epoch": 143,
        "meta_bstar": -0.0056974435,
        "meta_mean_motion_dot": -0.01321238,
        "meta_mean_motion_ddot": 0,
        "tle_line1": "1 67032U 25294C   25354.91668981 -.01321238  00000+0 -56974-2 0  9991",
        "tle_line2": "2 67032  42.9997 132.1650 0001733 280.7600 164.7143 15.86679643  1434"
      },
      "geometry": {
        "type": "Point",
        "coordinates": [
          -89.92797681314671,
          30.973309252276902
        ]
      }
    },
    {
      "type": "Feature",
      "properties": {
        "norad_id": 67033,
        "name": "STARLINK-36137",
        "group": "last-30-days",
        "lat": 32.0542939390149,
        "lon": -92.04302149304351,
        "alt_km": 310.3451255046948,
        "timestamp": "2025-12-21T05:44:50.294125+00:00",
        "meta_object_name": "STARLINK-36137",
        "meta_object_id": "2025-294D",
        "meta_epoch": "2025-12-20T22:00:01.999584",
        "meta_mean_motion": 15.86646943,
        "meta_eccentricity": 0.00016914,
        "meta_inclination": 42.9996,
        "meta_ra_of_asc_node": 132.1705,
        "meta_arg_of_pericenter": 282.1528,
        "meta_mean_anomaly": 161.2498,
        "meta_ephemeris_type": 0,
        "meta_classification_type": "U",
        "meta_norad_cat_id": 67033,
        "meta_element_set_no": 999,
        "meta_rev_at_epoch": 143,
        "meta_bstar": -0.0056606541,
        "meta_mean_motion_dot": -0.01311825,
        "meta_mean_motion_ddot": 0,
        "tle_line1": "1 67033U 25294D   25354.91668981 -.01311825  00000+0 -56607-2 0  9996",
        "tle_line2": "2 67033  42.9996 132.1705 0001691 282.1528 161.2498 15.86646943  1435"
      },
      "geometry": {
        "type": "Point",
        "coordinates": [
          -92.04302149304351,
          32.0542939390149
        ]
      }
    },
    {
      "type": "Feature",
      "properties": {
        "norad_id": 67034,
        "name": "STARLINK-36140",
        "group": "last-30-days",
        "lat": 29.763207924979074,
        "lon": -87.68874738131782,
        "alt_km": 310.5250838930051,
        "timestamp": "2025-12-21T05:44:50.294137+00:00",
        "meta_object_name": "STARLINK-36140",
        "meta_object_id": "2025-294E",
        "meta_epoch": "2025-12-20T22:00:01.999584",
        "meta_mean_motion": 15.86708324,
        "meta_eccentricity": 0.00016879,
        "meta_inclination": 42.9998,
        "meta_ra_of_asc_node": 132.1597,
        "meta_arg_of_pericenter": 280.1862,
        "meta_mean_anomaly": 167.5419,
        "meta_ephemeris_type": 0,
        "meta_classification_type": "U",
        "meta_norad_cat_id": 67034,
        "meta_element_set_no": 999,
        "meta_rev_at_epoch": 143,
        "meta_bstar": -0.0057467644,
        "meta_mean_motion_dot": -0.01332913,
        "meta_mean_motion_ddot": 0,
        "tle_line1": "1 67034U 25294E   25354.91668981 -.01332913  00000+0 -57468-2 0  9994",
        "tle_line2": "2 67034  42.9998 132.1597 0001687 280.1862 167.5419 15.86708324  1435"
      },
      "geometry": {
        "type": "Point",
        "coordinates": [
          -87.68874738131782,
          29.763207924979074
        ]
      }
    },
    {
      "type": "Feature",
      "properties": {
        "norad_id": 67035,
        "name": "STARLINK-36085",
        "group": "last-30-days",
        "lat": 27.200162314012235,
        "lon": -83.31587770222126,
        "alt_km": 310.6674537495928,
        "timestamp": "2025-12-21T05:44:50.294147+00:00",
        "meta_object_name": "STARLINK-36085",
        "meta_object_id": "2025-294F",
        "meta_epoch": "2025-12-20T22:00:01.999584",
        "meta_mean_motion": 15.86756008,
        "meta_eccentricity": 0.00015018,
        "meta_inclination": 42.9999,
        "meta_ra_of_asc_node": 132.148,
        "meta_arg_of_pericenter": 279.21,
        "meta_mean_anomaly": 173.0923,
        "meta_ephemeris_type": 0,
        "meta_classification_type": "U",
        "meta_norad_cat_id": 67035,
        "meta_element_set_no": 999,
        "meta_rev_at_epoch": 143,
        "meta_bstar": -0.0057996513,
        "meta_mean_motion_dot": -0.01346324,
        "meta_mean_motion_ddot": 0,
        "tle_line1": "1 67035U 25294F   25354.91668981 -.01346324  00000+0 -57997-2 0  9993",
        "tle_line2": "2 67035  42.9999 132.1480 0001501 279.2100 173.0923 15.86756008  1431"
      },
      "geometry": {
        "type": "Point",
        "coordinates": [
          -83.31587770222126,
          27.200162314012235
        ]
      }
    },
    {
      "type": "Feature",
      "properties": {
        "norad_id": 67036,
        "name": "STARLINK-36125",
        "group": "last-30-days",
        "lat": 28.50143971325597,
        "lon": -85.47952046901553,
        "alt_km": 310.59591436625124,
        "timestamp": "2025-12-21T05:44:50.294159+00:00",
        "meta_object_name": "STARLINK-36125",
        "meta_object_id": "2025-294G",
        "meta_epoch": "2025-12-20T22:00:01.999584",
        "meta_mean_motion": 15.8673402,
        "meta_eccentricity": 0.00016464,
        "meta_inclination": 42.9998,
        "meta_ra_of_asc_node": 132.1538,
        "meta_arg_of_pericenter": 277.5736,
        "meta_mean_anomaly": 172.4381,
        "meta_ephemeris_type": 0,
        "meta_classification_type": "U",
        "meta_norad_cat_id": 67036,
        "meta_element_set_no": 999,
        "meta_rev_at_epoch": 162,
        "meta_bstar": -0.005788829,
        "meta_mean_motion_dot": -0.0134294,
        "meta_mean_motion_ddot": 0,
        "tle_line1": "1 67036U 25294G   25354.91668981 -.01342940  00000+0 -57888-2 0  9993",
        "tle_line2": "2 67036  42.9998 132.1538 0001646 277.5736 172.4381 15.86734020  1623"
      },
      "geometry": {
        "type": "Point",
        "coordinates": [
          -85.47952046901553,
          28.50143971325597
        ]
      }
    },
    {
      "type": "Feature",
      "properties": {
        "norad_id": 67037,
        "name": "STARLINK-35732",
        "group": "last-30-days",
        "lat": 25.773254375101725,
        "lon": -81.05922448626488,
        "alt_km": 310.96196096535095,
        "timestamp": "2025-12-21T05:44:50.294180+00:00",
        "meta_object_name": "STARLINK-35732",
        "meta_object_id": "2025-294H",
        "meta_epoch": "2025-12-20T22:00:01.999584",
        "meta_mean_motion": 15.86777311,
        "meta_eccentricity": 0.00016983,
        "meta_inclination": 42.9998,
        "meta_ra_of_asc_node": 132.142,
        "meta_arg_of_pericenter": 280.6721,
        "meta_mean_anomaly": 174.087,
        "meta_ephemeris_type": 0,
        "meta_classification_type": "U",
        "meta_norad_cat_id": 67037,
        "meta_element_set_no": 999,
        "meta_rev_at_epoch": 154,
        "meta_bstar": -0.0058472911,
        "meta_mean_motion_dot": -0.01357408,
        "meta_mean_motion_ddot": 0,
        "tle_line1": "1 67037U 25294H   25354.91668981 -.01357408  00000+0 -58473-2 0  9990",
        "tle_line2": "2 67037  42.9998 132.1420 0001698 280.6721 174.0870 15.86777311  1542"
      },
      "geometry": {
        "type": "Point",
        "coordinates": [
          -81.05922448626488,
          25.773254375101725
        ]
      }
    },
    {
      "type": "Feature",
      "properties": {
        "norad_id": 67038,
        "name": "STARLINK-35775",
        "group": "last-30-days",
        "lat": 24.526420468065872,
        "lon": -79.17369135218964,
        "alt_km": 311.1375437179695,
        "timestamp": "2025-12-21T05:44:50.294193+00:00",
        "meta_object_name": "STARLINK-35775",
        "meta_object_id": "2025-294J",
        "meta_epoch": "2025-12-20T22:00:01.999584",
        "meta_mean_motion": 15.86804634,
        "meta_eccentricity": 0.00017469,
        "meta_inclination": 42.9999,
        "meta_ra_of_asc_node": 132.1366,
        "meta_arg_of_pericenter": 283.7467,
        "meta_mean_anomaly": 173.0975,
        "meta_ephemeris_type": 0,
        "meta_classification_type": "U",
        "meta_norad_cat_id": 67038,
        "meta_element_set_no": 999,
        "meta_rev_at_epoch": 154,
        "meta_bstar": -0.0058540145,
        "meta_mean_motion_dot": -0.01360429,
        "meta_mean_motion_ddot": 0,
        "tle_line1": "1 67038U 25294J   25354.91668981 -.01360429  00000+0 -58540-2 0  9993",
        "tle_line2": "2 67038  42.9999 132.1366 0001746 283.7467 173.0975 15.86804634  1542"
      },
      "geometry": {
        "type": "Point",
        "coordinates": [
          -79.17369135218964,
          24.526420468065872
        ]
      }
    }
  ]
}